OBJECT_NAME,OBJECT_ID,EPOCH,MEAN_MOTION,ECCENTRICITY,INCLINATION,RA_OF_ASC_NODE,ARG_OF_PERICENTER,MEAN_ANOMALY,EPHEMERIS_TYPE,CLASSIFICATION_TYPE,NORAD_CAT_ID,ELEMENT_SET_NO,REV_AT_EPOCH,BSTAR,MEAN_MOTION_DOT,MEAN_MOTION_DDOT
D-STAR ONE (SPARROW),2018-111F,2026-06-18T06:36:01.524096,15.74731509,.00043753,97.6116,110.2173,112.2723,247.9005,0,U,43881,999,41154,.90290879E-3,.134065E-2,0
JILIN-1 09,2019-005B,2026-06-18T13:29:17.772864,15.20524205,.00037805,97.4742,264.5126,91.9111,268.2557,0,U,43943,999,40935,.16729177E-3,.3589E-4,0
JILIN-1 10,2019-005E,2026-06-18T13:40:00.035904,15.25734441,.00065522,97.4789,268.3735,272.9280,87.1208,0,U,43946,999,40952,.18159583E-3,.456E-4,0
EGYPTSAT-A (MISRSAT-A),2019-008A,2026-06-18T15:19:17.213952,14.72311005,.00013194,98.0190,234.3795,96.6814,263.4543,0,U,44047,999,39345,.13889147E-3,.829E-5,0
EMISAT,2019-018A,2026-06-18T14:23:41.728992,14.43688847,.00177632,98.4642,228.3929,210.2361,149.7806,0,U,44078,999,38026,.15293618E-3,.476E-5,0
JILIN-1 GAOFEN 3A,2019-032C,2026-06-18T14:01:19.198272,15.32654245,.00063967,44.9753,349.2475,302.5771,57.4495,0,U,44312,999,38805,.29732134E-3,.9263E-4,0
WT 1B,2019-032G,2026-06-18T13:45:18.482976,15.27204645,.00099721,44.9722,53.3738,255.8571,104.1204,0,U,44316,999,38729,.30605665E-3,.8037E-4,0
PROX-1,2019-036A,2026-06-17T22:15:37.530144,14.90623480,.00057424,23.9948,109.3054,44.3809,315.7150,0,U,44339,999,37358,.10553694E-2,.10882E-3,0
NPSAT1,2019-036B,2026-06-18T09:40:33.420576,14.74586294,.00071027,23.9980,209.8426,220.9828,139.0134,0,U,44340,999,37267,.49011521E-3,.3587E-4,0
FORMOSAT 7-3,2019-036E,2026-06-18T08:57:40.721472,15.09805082,.00003163,23.9974,170.3761,298.1513,61.8958,0,U,44343,999,38342,.16102036E-3,.3016E-4,0
FORMOSAT 7-1,2019-036L,2026-06-17T21:55:46.904448,14.96508462,.00007465,23.9987,27.4949,163.4061,196.6465,0,U,44349,999,38476,.16935154E-3,.2274E-4,0
FORMOSAT 7-4,2019-036M,2026-06-18T11:16:16.461408,14.96502105,.00010127,23.9985,85.8516,191.4838,168.5639,0,U,44350,999,38426,.15493394E-3,.2106E-4,0
FORMOSAT 7-2,2019-036N,2026-06-18T00:36:20.150208,14.96501020,.00006628,23.9964,143.1646,170.5801,189.4713,0,U,44351,999,38371,.14648673E-3,.2008E-4,0
FORMOSAT 7-6,2019-036Q,2026-06-18T15:00:07.356960,14.96517066,.00014018,23.9991,319.9379,105.6765,254.3890,0,U,44353,999,38203,.16721784E-3,.225E-4,0
FORMOSAT 7-5,2019-036V,2026-06-18T12:51:20.641248,14.96522726,.00004831,23.9984,259.2921,124.9382,235.1164,0,U,44358,999,38255,.1496057E-3,.2045E-4,0
METEOR-M2 2,2019-038A,2026-06-18T13:54:15.758784,14.24366772,.00020364,98.9143,156.8857,44.8123,315.3219,0,U,44387,999,36149,.96212934E-4,.177E-5,0
COSMOS 2535,2019-039A,2026-06-18T14:49:45.007392,14.91944941,.00076974,97.5766,197.7269,197.2625,162.8334,0,U,44421,999,37685,.10407897E-3,.1E-4,0
GLOBAL-4,2019-054E,2026-06-18T13:06:40.335552,15.64524289,.00058314,45.0043,228.5573,343.4287,16.6419,0,U,44499,999,38057,.40780309E-3,.40108E-3,0
ZY-1 02D,2019-059A,2026-06-17T13:22:13.526400,14.35552140,.0002726,98.4516,230.0275,63.6467,296.4998,0,U,44528,999,35439,.14508E-3,.375E-5,0
TAURUS-1 (JINNIUZUO 1),2019-059C,2026-06-18T14:27:07.744608,14.72107454,.00073929,98.6417,334.5168,310.9457,49.1108,0,U,44530,999,35885,.77082022E-3,.4798E-4,0
ZHUHAI-1 03B,2019-060C,2026-06-18T14:23:47.693184,15.54153047,.00073871,97.5534,327.4408,311.8325,48.2297,0,U,44536,999,37654,.3774977E-3,.24502E-3,0
ZHUHAI-1 03D,2019-060E,2026-06-18T15:27:40.938912,15.49818751,.00066033,97.5400,319.5964,294.2020,65.8541,0,U,44538,999,37630,.45584794E-3,.25352E-3,0
ZHUHAI-1 03E,2019-060F,2026-06-18T14:34:13.097856,15.41103209,.00057988,97.5620,319.6029,28.4157,331.7404,0,U,44539,999,37598,.3261867E-3,.13421E-3,0
ATLAS 5 CENTAUR DEB,2018-079BG,2026-06-17T06:22:25.057920,1.77424358,.47217327,13.6235,39.2748,299.2300,21.7203,0,U,44694,999,4656,0,-.109E-5,0
GAOFEN-7,2019-072A,2026-06-18T15:30:19.399968,15.21272866,.00186989,97.2427,231.0586,36.5683,323.6826,0,U,44703,999,36786,.14741819E-3,.3242E-4,0
JILIN-1 GAOFEN 2A,2019-075A,2026-06-18T13:33:56.983968,15.39340288,.00074153,97.4964,253.3874,83.6792,276.5298,0,U,44777,999,36509,.28903428E-3,.11213E-3,0
NINGXIA-1 1,2019-076A,2026-06-18T12:51:04.900032,14.02038345,.00107125,45.0035,173.8265,169.9840,190.1209,0,U,44779,999,33804,.22935152E-4,-.95E-6,0
NINGXIA-1 5,2019-076E,2026-06-18T11:27:32.946624,14.02085718,.00101657,45.0030,173.4266,159.5001,200.6242,0,U,44783,999,33795,-.5936753E-4,-.221E-5,0
KL-ALPHA A,2019-077A,2026-06-18T14:18:13.173984,13.56043413,.00133146,88.9247,222.4108,102.5248,257.7396,0,U,44785,999,32592,.13315603E-3,.106E-5,0
CARTOSAT-3,2019-081A,2026-06-18T14:33:05.158080,15.19290268,.00133518,97.4300,231.4511,143.4891,216.7256,0,U,44804,999,36368,.16576556E-3,.3437E-4,0
JILIN-1 GAOFEN 2B,2019-086A,2026-06-18T14:16:31.952928,15.20723455,.00127837,97.4879,241.5769,318.9052,41.1219,0,U,44836,999,36070,.20717624E-3,.4496E-4,0
TIANQIN 1 (CAS-6),2019-093A,2026-06-18T13:28:15.971808,14.95438755,.00120806,97.7806,253.3913,53.0134,307.2191,0,U,44879,999,35225,.18169841E-3,.1953E-4,0
ETRSS-1,2019-093B,2026-06-18T13:37:31.033920,14.95872565,.00122071,97.7820,253.8580,53.9118,306.3232,0,U,44880,999,35226,.26253638E-3,.2881E-4,0
TIANYAN 01,2019-093C,2026-06-18T14:13:50.118816,14.86519996,.00150848,97.7533,241.7907,82.5676,277.7253,0,U,44881,999,35162,.20988056E-4,.133E-5,0
TIANYAN 02,2019-093D,2026-06-18T15:33:46.941408,15.05242084,.00139883,97.7940,264.4526,25.5257,334.6657,0,U,44882,999,35283,.32587764E-3,.46E-4,0
CBERS 4A,2019-093E,2026-06-18T15:26:13.337952,14.81400227,.00006257,98.0192,237.0848,48.3038,311.8228,0,U,44883,999,35129,.15078695E-4,.65E-6,0
WEILAI 1R,2019-093F,2026-06-18T14:07:01.630848,15.00657611,.00179032,97.7863,259.4761,32.4022,327.8297,0,U,44884,999,35263,.3886955E-3,.4873E-4,0
FLORIPASAT-1,2019-093G,2026-06-18T13:20:54.772800,15.03883593,.00125721,97.7909,263.7962,67.3057,292.9496,0,U,44885,999,35285,.37096195E-3,.5056E-4,0
SHUNTIAN,2019-093H,2026-06-18T14:43:23.500416,14.95169572,.00132635,97.8021,257.7672,63.7626,296.4956,0,U,44886,999,35239,.20407979E-3,.2186E-4,0
2019-093L,2019-093L,2026-06-18T14:14:15.574848,14.94544103,.00130829,97.7560,247.8384,50.9386,309.2996,0,U,44889,999,35201,.20832553E-3,.2197E-4,0
ELEKTRO-L 3,2019-095A,2026-06-18T14:59:44.278656,1.00271395,.00009422,0.2617,81.4848,353.1566,133.1087,0,U,44903,999,2372,0,-.102E-5,0
GONETS-M 14,2019-096A,2026-06-18T13:51:49.520736,12.42870112,.00135748,82.5241,83.7792,144.9272,215.2705,0,U,44905,999,29385,.67507623E-3,.103E-5,0
GONETS-M 15,2019-096B,2026-06-18T14:34:09.583104,12.42871527,.00149462,82.5261,84.2227,168.2301,191.9131,0,U,44906,999,29382,.29132078E-3,.5E-6,0
GONETS-M 16,2019-096C,2026-06-18T13:15:57.561984,12.42891879,.00098398,82.5207,83.2082,211.3707,148.6787,0,U,44907,999,29380,.60490176E-3,.94E-6,0
RS-44 & BREEZE-KM R/B,2019-096E,2026-06-18T11:46:31.341792,12.79748854,.02182209,82.5219,338.8385,141.1281,220.5745,0,U,44909,999,30251,-.22182571E-4,.7E-7,0
JILIN-1 KUANFU 01,2020-003A,2026-06-18T13:03:22.232448,15.10731095,.00082503,97.5029,243.4730,302.2155,57.8275,0,U,45016,999,35553,.1577889E-3,.2553E-4,0
XINGYUN-2 01,2020-028A,2026-06-18T14:21:20.871072,15.11808610,.00084785,97.4859,161.9708,188.6349,171.4737,0,U,45602,999,33505,.85998366E-4,.1406E-4,0
XINGYUN-2 02,2020-028B,2026-06-18T13:50:54.640320,15.11538913,.0009124,97.5062,175.5442,267.7814,92.2371,0,U,45603,999,33504,.61945274E-4,.986E-5,0
HAIYANG-1D,2020-036A,2026-06-18T15:32:24.489888,14.34173547,.00034765,98.4563,111.2959,124.5210,235.6304,0,U,45721,999,31518,.34884831E-4,.55E-6,0
M2 PATHFINDER,2020-037E,2026-06-18T12:14:14.276544,15.04679497,.00125597,97.8145,0.7565,142.3155,217.8953,0,U,45727,999,32569,.92873604E-4,.1244E-4,0
GAOFEN DUOMO (GFDM),2020-042A,2026-06-18T15:07:30.475776,14.76882285,.00124248,97.7743,229.4640,70.5390,289.7162,0,U,45856,999,32122,.78698884E-4,.505E-5,0
ZIYUAN 3-03 (ZY 3-03),2020-051A,2026-06-18T15:09:02.164320,15.21269845,.00027283,97.2834,237.3110,338.8976,21.2147,0,U,45939,999,32756,.20936155E-3,.4612E-4,0
NEMO-HD,2020-061F,2026-06-18T14:52:30.125568,15.44618476,.00021964,97.1915,231.5583,80.1842,279.9655,0,U,46277,999,32220,.18855303E-3,.8689E-4,0
3CAT-5A,2020-061W,2026-06-18T14:24:08.218368,15.46135194,.00033138,97.2401,232.4907,113.7446,246.4151,0,U,46292,999,32124,.26849511E-3,.13077E-3,0
3CAT-5B,2020-061X,2026-06-18T03:06:43.625376,15.47505831,.00034504,97.2392,233.0053,112.7011,247.4604,0,U,46293,999,32120,.29554374E-3,.15104E-3,0
NAPA-1,2020-061BA,2026-06-18T15:07:51.368160,15.68146974,.0001456,97.2460,243.8577,173.4873,186.6407,0,U,46320,999,32196,.51458537E-3,.57408E-3,0
JILIN-1 GAOFEN 3E,2020-065D,2026-06-18T13:34:49.011456,15.63770321,.00128429,97.2240,222.2071,152.7315,207.4621,0,U,46457,999,31997,.57586391E-3,.54157E-3,0
JILIN-1 GAOFEN 3F,2020-065E,2026-06-18T14:14:14.250336,15.61027802,.00144537,97.2194,219.5637,141.7166,218.5121,0,U,46458,999,31992,.48774768E-3,.41203E-3,0
JILIN-1 GAOFEN 3G,2020-065F,2026-06-18T14:42:02.375136,15.71446724,.00079207,97.2259,226.4111,59.6093,300.5952,0,U,46459,999,32016,.60707615E-3,.77941E-3,0
JILIN-1 GAOFEN 3H,2020-065G,2026-06-18T14:05:40.715520,15.67956572,.00033787,97.2206,222.7048,340.7973,19.3161,0,U,46460,999,32010,.55262765E-3,.61227E-3,0
HAIYANG-2C,2020-066A,2026-06-18T14:40:48.940320,13.83376280,.00088819,65.9956,211.7378,237.9136,122.1071,0,U,46469,999,28969,.16791074E-3,.104E-5,0
HJ-2A,2020-067A,2026-06-18T14:07:11.692128,14.76519098,.00023284,97.8831,247.9277,260.6362,99.4585,0,U,46478,999,30846,.13918683E-3,.92E-5,0
HJ-2B,2020-067B,2026-06-18T15:00:15.114816,14.76559517,.00013018,97.8895,248.9866,99.4173,260.7184,0,U,46479,999,30847,.62357419E-4,.385E-5,0
GONETS-M 17,2020-068A,2026-06-18T13:52:09.391008,12.42873262,.00230302,82.4985,346.6367,34.5794,325.6778,0,U,46486,999,25933,.11553684E-3,.26E-6,0
GONETS-M 18,2020-068B,2026-06-18T12:59:49.261632,12.42873825,.00202638,82.4939,345.7767,31.4103,328.8182,0,U,46487,999,25931,.4149201E-3,.67E-6,0
